     2              NAVIGATION DATA                         RINEX VERSION / TYPE
CCRINEXN V1.6.0 UX  CDDIS               16-MAR-24 23:53     PGM / RUN BY / DATE 
IGS BROADCAST EPHEMERIS FILE                                COMMENT             
    0.2142D-07  0.7451D-08 -0.1192D-06  0.0000D+00          ION ALPHA           
    0.1229D+06  0.0000D+00 -0.2621D+06  0.1966D+06          ION BETA            
   -0.931322574615D-09-0.532907051820D-14   147456     2306 DELTA-UTC: A0,A1,T,W
    18                                                      LEAP SECONDS        
                                                            END OF HEADER       
  1 24  3 16  4  0  0.0 0.174205750227D-03 0.204636307899D-11 0.000000000000D+00
    0.100000000000D+03-0.446562500000D+02 0.388587614805D-08-0.148656124924D+01
   -0.219605863094D-05 0.128954612883D-01 0.422634184360D-05 0.515400568008D+04
    0.532800000000D+06 0.337138772011D-06-0.286472611902D+01 0.558793544769D-07
    0.990913338055D+00 0.309218750000D+03 0.100164473601D+01-0.779603902203D-08
   -0.142863093678D-10 0.100000000000D+01 0.230500000000D+04 0.000000000000D+00
    0.200000000000D+01 0.630000000000D+02 0.512227416039D-08 0.100000000000D+03
    0.525618000000D+06 0.400000000000D+01 0.000000000000D+00 0.000000000000D+00
17 24  3 16  4  0  0.0 0.713533256203D-03-0.136424205266D-11 0.000000000000D+00
    0.107000000000D+03 0.556875000000D+02 0.441518391013D-08 0.945075276762D+00
    0.282004475594D-05 0.134668997489D-01 0.430829823017D-05 0.515368982506D+04
    0.532800000000D+06-0.188127160072D-06 0.241092731431D+01-0.229105353355D-06
    0.969886409811D+00 0.298437500000D+03-0.133094972274D+01-0.833213278106D-08
    0.771460705863D-10 0.100000000000D+01 0.230500000000D+04 0.000000000000D+00
    0.200000000000D+01 0.000000000000D+00-0.111758708954D-07 0.107000000000D+03
    0.525618000000D+06 0.400000000000D+01 0.000000000000D+00 0.000000000000D+00
18 24  3 16  4  0  0.0-0.576347578317D-03-0.750333128963D-11 0.000000000000D+00
    0.205000000000D+03-0.596562500000D+02 0.420946105523D-08-0.110230016053D+01
   -0.313483178616D-05 0.388762494549D-02 0.459700822830D-05 0.515362314415D+04
    0.532800000000D+06 0.130385160446D-07-0.286804232463D+01 0.372529029846D-08
    0.974804466827D+00 0.296031250000D+03-0.303032688174D+01-0.811462372093D-08
   -0.160720980388D-10 0.100000000000D+01 0.230500000000D+04 0.000000000000D+00
    0.200000000000D+01 0.000000000000D+00-0.838190317154D-08 0.717000000000D+03
    0.525618000000D+06 0.400000000000D+01 0.000000000000D+00 0.000000000000D+00
19 24  3 16  4  0  0.0 0.454578548670D-03 0.534328137292D-11 0.000000000000D+00
    0.530000000000D+02 0.522812500000D+02 0.430125059292D-08 0.297271226700D+01
    0.279583036900D-05 0.958674307913D-02 0.359490513802D-05 0.515369747734D+04
    0.532800000000D+06-0.819563865662D-07 0.245529886313D+01 0.214204192162D-06
    0.969081402565D+00 0.308343750000D+03 0.249448442296D+01-0.803069165340D-08
    0.653598653579D-10 0.100000000000D+01 0.230500000000D+04 0.000000000000D+00
    0.200000000000D+01 0.000000000000D+00-0.153668224812D-07 0.530000000000D+02
    0.525618000000D+06 0.400000000000D+01 0.000000000000D+00 0.000000000000D+00
20 24  3 16  4  0  0.0 0.383775215596D-03-0.136424205266D-11 0.000000000000D+00
    0.116000000000D+03-0.587812500000D+02 0.473448292450D-08-0.580803202248D+00
   -0.301748514175D-05 0.376054586377D-02 0.776723027229D-05 0.515374478722D+04
    0.532800000000D+06 0.372529029846D-07-0.201464658637D+01 0.502914190292D-07
    0.952671214100D+00 0.226062500000D+03-0.260807650666D+01-0.813891044686D-08
    0.176793078427D-09 0.100000000000D+01 0.230500000000D+04 0.000000000000D+00
    0.200000000000D+01 0.000000000000D+00-0.838190317154D-08 0.116000000000D+03
    0.529608000000D+06 0.400000000000D+01 0.000000000000D+00 0.000000000000D+00
21 24  3 16  4  0  0.0 0.131184700876D-03-0.147792889038D-11 0.000000000000D+00
    0.710000000000D+02-0.411875000000D+02 0.467376610969D-08 0.822764749900D+00
   -0.253878533840D-05 0.252882678760D-01 0.296905636787D-05 0.515371281242D+04
    0.532800000000D+06 0.517815351486D-06-0.297654341245D+01-0.232830643654D-06
    0.962055012881D+00 0.321468750000D+03-0.607993606243D+00-0.847213861287D-08
   -0.839320675361D-10 0.100000000000D+01 0.230500000000D+04 0.000000000000D+00
    0.200000000000D+01 0.000000000000D+00-0.102445483208D-07 0.710000000000D+02
    0.525618000000D+06 0.400000000000D+01 0.000000000000D+00 0.000000000000D+00
22 24  3 16  4  0  0.0 0.153132714331D-04-0.591171556152D-11 0.000000000000D+00
    0.420000000000D+02 0.710937500000D+02 0.435982446133D-08 0.145609165878D+01
    0.363960862160D-05 0.144205068937D-01 0.861473381519D-05 0.515371327782D+04
    0.532800000000D+06 0.331550836563D-06 0.139263078160D+01-0.225380063057D-06
    0.961577475459D+00 0.210937500000D+03-0.113936707119D+01-0.785068415536D-08
   -0.371444043564D-10 0.100000000000D+01 0.230500000000D+04 0.000000000000D+00
    0.200000000000D+01 0.000000000000D+00-0.111758708954D-07 0.420000000000D+02
    0.525618000000D+06 0.400000000000D+01 0.000000000000D+00 0.000000000000D+00
23 24  3 16  4  0  0.0 0.178118702024D-03 0.864019966684D-11 0.000000000000D+00
    0.238000000000D+03-0.711562500000D+02 0.402445334892D-08-0.223677754653D+01
   -0.366754829884D-05 0.400386517867D-02 0.880286097527D-05 0.515371321487D+04
    0.532800000000D+06-0.204890966415D-07-0.186786152782D+01-0.949949026108D-07
    0.977956603247D+00 0.218093750000D+03-0.295807473148D+01-0.776389482595D-08
    0.246438836595D-09 0.100000000000D+01 0.230500000000D+04 0.000000000000D+00
    0.200000000000D+01 0.000000000000D+00-0.838190317154D-08 0.100600000000D+04
    0.525618000000D+06 0.400000000000D+01 0.000000000000D+00 0.000000000000D+00
24 24  3 16  4  0  0.0-0.446869526058D-03-0.534328137292D-11 0.000000000000D+00
    0.410000000000D+02-0.696875000000D+01 0.530200656414D-08-0.897112720483D+00
   -0.244006514549D-06 0.151351593668D-01 0.772625207901D-05 0.515372088432D+04
    0.532800000000D+06 0.838190317154D-07 0.160264006839D+00 0.374391674995D-06
    0.934373486806D+00 0.216375000000D+03 0.970426500147D+00-0.843677999718D-08
   -0.329299430929D-09 0.100000000000D+01 0.230500000000D+04 0.000000000000D+00
    0.200000000000D+01 0.000000000000D+00 0.232830643654D-08 0.410000000000D+02
    0.529933000000D+06 0.400000000000D+01 0.000000000000D+00 0.000000000000D+00
25 24  3 16  4  0  0.0 0.491410028189D-03 0.102318153950D-11 0.000000000000D+00
    0.550000000000D+02 0.801875000000D+02 0.449018703431D-08-0.273475733597D+01
    0.412575900555D-05 0.118301716866D-01 0.843405723572D-05 0.515360157967D+04
    0.532800000000D+06 0.137835741043D-06 0.128560769454D+01-0.102445483208D-06
    0.950704306113D+00 0.210781250000D+03 0.108359225295D+01-0.777032366517D-08
   -0.860750139413D-10 0.100000000000D+01 0.230500000000D+04 0.000000000000D+00
    0.200000000000D+01 0.000000000000D+00 0.558793544769D-08 0.550000000000D+02
    0.525618000000D+06 0.400000000000D+01 0.000000000000D+00 0.000000000000D+00
26 24  3 16  4  0  0.0 0.178987160325D-03-0.454747350886D-11 0.000000000000D+00
    0.380000000000D+02 0.760625000000D+02 0.495520640424D-08 0.274281314600D+01
    0.386498868465D-05 0.883809151128D-02 0.925734639168D-05 0.515360729599D+04
    0.532800000000D+06-0.558793544769D-07 0.122444284534D+01-0.137835741043D-06
    0.931512728558D+00 0.185750000000D+03 0.539408012920D+00-0.806319300721D-08
   -0.193936649668D-09 0.100000000000D+01 0.230500000000D+04 0.000000000000D+00
    0.200000000000D+01 0.000000000000D+00 0.698491930962D-08 0.380000000000D+02
    0.525618000000D+06 0.400000000000D+01 0.000000000000D+00 0.000000000000D+00
27 24  3 16  4  0  0.0-0.120843760669D-04-0.284217094304D-11 0.000000000000D+00
    0.940000000000D+02 0.800000000000D+02 0.452804575414D-08 0.100040927243D+01
    0.411644577980D-05 0.125051287468D-01 0.450387597084D-05 0.515368126678D+04
    0.532800000000D+06-0.111758708954D-06 0.234317914942D+01 0.726431608200D-07
    0.963095247114D+00 0.293718750000D+03 0.772279815640D+00-0.840249285470D-08
   -0.639312344211D-10 0.100000000000D+01 0.230500000000D+04 0.000000000000D+00
    0.200000000000D+01 0.000000000000D+00 0.186264514923D-08 0.940000000000D+02
    0.527526000000D+06 0.400000000000D+01 0.000000000000D+00 0.000000000000D+00
28 24  3 16  4  0  0.0-0.166097190231D-03-0.139834810398D-10 0.000000000000D+00
    0.120000000000D+02 0.375000000000D+00 0.455233248006D-08 0.286588977234D+01
    0.223517417908D-07 0.546206370927D-03 0.827386975288D-05 0.515360750580D+04
    0.532800000000D+06-0.130385160446D-07 0.222092456162D+00 0.298023223877D-07
    0.961823590945D+00 0.221875000000D+03 0.175647378370D+01-0.785675583685D-08
   -0.280011663610D-09 0.100000000000D+01 0.230500000000D+04 0.000000000000D+00
    0.200000000000D+01 0.000000000000D+00-0.931322574616D-08 0.780000000000D+03
    0.530208000000D+06 0.400000000000D+01 0.000000000000D+00 0.000000000000D+00
30 24  3 16  4  0  0.0-0.419138930738D-03 0.522959453519D-11 0.000000000000D+00
    0.790000000000D+02-0.117187500000D+02 0.511807033103D-08-0.206191787582D+01
   -0.784173607826D-06 0.692982156761D-02 0.797212123871D-05 0.515367151070D+04
    0.532800000000D+06 0.391155481338D-07 0.257694485507D+00-0.726431608200D-07
    0.935842255095D+00 0.211000000000D+03-0.251131662233D+01-0.813319592311D-08
   -0.191793703263D-09 0.100000000000D+01 0.230500000000D+04 0.000000000000D+00
    0.200000000000D+01 0.000000000000D+00 0.372529029846D-08 0.790000000000D+02
    0.525618000000D+06 0.400000000000D+01 0.000000000000D+00 0.000000000000D+00
